STARLINK-37990          
1 69683U 26145G   26182.58335648  .00007048  00000+0  37495-4 0  9991
2 69683  97.2849  28.7468 0001800  88.6390 275.4409 15.80823012  2240
STARLINK-37951          
1 69684U 26145H   26182.58335648 -.00006075  00000+0 -30985-4 0  9990
2 69684  97.2847  28.7478 0001597  87.3219 277.4547 15.80823372  2243
STARLINK-37957          
1 69685U 26145J   26182.58335648 -.00084792  00000+0 -44551-3 0  9996
2 69685  97.2847  28.7492 0000985 110.1790 257.4553 15.80852383  2248
STARLINK-37968          
1 69686U 26145K   26182.58335648 -.02356050  00000+0 -12742-1 0  9993
2 69686  97.2855  28.7600 0001544  73.7757 318.6913 15.83105408  2240
STARLINK-37977          
1 69687U 26145L   26182.58335648 -.02400806  00000+0 -12770-1 0  9994
2 69687  97.2857  28.7616 0001587  69.5610 328.5742 15.83518565  2240
STARLINK-37908          
1 69688U 26145M   26182.58335648 -.02140323  00000+0 -11305-1 0  9993
2 69688  97.2860  28.7658 0001563  81.1945 322.7854 15.83832196  2245
STARLINK-37979          
1 69689U 26145N   26182.58335648 -.02402187  00000+0 -12466-1 0  9992
2 69689  97.2859  28.7654 0001585  72.1858 335.2845 15.84035876  2247
STARLINK-37940          
1 69690U 26145P   26182.58335648 -.02399155  00000+0 -12127-1 0  9998
2 69690  97.2862  28.7688 0001633  75.5312 339.3706 15.84579252  2248
STARLINK-37961          
1 69691U 26145Q   26182.58335648 -.02394740  00000+0 -11795-1 0  9994
2 69691  97.2862  28.7721 0001690  66.7530 355.3293 15.85109569  2244
STARLINK-37787          
1 69692U 26145R   26182.58335648 -.02331726  00000+0 -11528-1 0  9994
2 69692  97.2865  28.7754 0001690  74.5793 355.3411 15.85531331  2240
STARLINK-37962          
1 69693U 26145S   26182.58335648 -.02337014  00000+0 -11550-1 0  9996
2 69693  97.2865  28.7753 0001643  69.8082 359.3956 15.85547657  2242
STARLINK-37953          
1 69694U 26145T   26182.58335648 -.02400473  00000+0 -11604-1 0  9997
2 69694  97.2865  28.7756 0001809  74.4765 356.2507 15.85501445  2243
STARLINK-37926          
1 69695U 26145U   26182.58335648 -.02340186  00000+0 -11509-1 0  9996
2 69695  97.2866  28.7773 0001801  71.8189   1.6571 15.85651017  2240
STARLINK-37959          
1 69696U 26145V   26182.58335648 -.02330453  00000+0 -11446-1 0  9993
2 69696  97.2867  28.7770 0001704  71.2378   3.1753 15.85663141  2245
STARLINK-37976          
1 69697U 26145W   26182.58335648 -.02334290  00000+0 -11047-1 0  9994
2 69697  97.2872  28.7817 0001629  65.5776  19.2282 15.86427609  2241
STARLINK-37912          
1 69698U 26145X   26182.58335648 -.02336899  00000+0 -10849-1 0  9991
2 69698  97.2870  28.7842 0001741  70.7209  19.6835 15.86819624  2242
STARLINK-37974          
1 69699U 26145Y   26182.58335648 -.02330297  00000+0 -10741-1 0  9999
2 69699  97.2870  28.7852 0001688  73.4178  19.6561 15.86952341  2249
STARLINK-37955          
1 69700U 26145Z   26182.58335648 -.02329038  00000+0 -10257-1 0  9995
2 69700  97.2873  28.7903 0001728  73.8576  30.6863 15.87864399  2247
STARLINK-38055          
1 69704U 26147A   26182.58335648 -.02161025  13807-2 -43356-2 0  9990
2 69704  97.2835 218.1166 0000913  73.0494 279.6831 15.99908176  1560
STARLINK-37898          
1 69705U 26147B   26182.58335648 -.02231194  14728-2 -44241-2 0  9993
2 69705  97.2834 218.1169 0000896  74.2787 279.0352 16.00120170  1566
STARLINK-37970          
1 69706U 26147C   26182.58335648 -.02186765  14185-2 -43048-2 0  9998
2 69706  97.2835 218.1170 0000804  73.4890 280.4912 16.00245195  1568
STARLINK-37975          
1 69707U 26147D   26182.58335648 -.02196090  14334-2 -42814-2 0  9997
2 69707  97.2833 218.1175 0000604  91.3645 263.2609 16.00417150  1561
STARLINK-37972          
1 69708U 26147E   26182.58335648 -.02176327  14110-2 -42068-2 0  9992
2 69708  97.2834 218.1176 0000574  96.5637 258.7299 16.00566124  1568
STARLINK-37963          
1 69709U 26147F   26182.58335648 -.02148890  13791-2 -41215-2 0  9994
2 69709  97.2834 218.1177 0000779  75.3295 280.6248 16.00700661  1566
STARLINK-37969          
1 69710U 26147G   26182.58335648 -.02143158  13747-2 -40733-2 0  9993
2 69710  97.2832 218.1180 0000626  82.0242 274.5866 16.00859853  1700
STARLINK-37956          
1 69711U 26147H   26182.58335648 -.02119084  13466-2 -40047-2 0  9991
2 69711  97.2831 218.1183 0000617  82.2432 274.9329 16.00957659  1561
STARLINK-38043          
1 69712U 26147J   26182.58335648 -.02136324  13707-2 -39987-2 0  9997
2 69712  97.2830 218.1183 0001168  90.6640 267.1462 16.01125686  1567
STARLINK-38020          
1 69713U 26147K   26182.58335648 -.02122666  13563-2 -39395-2 0  9995
2 69713  97.2830 218.1186 0001079  93.1521 265.3275 16.01272902  1564
STARLINK-38059          
1 69714U 26147L   26182.58335648 -.02119199  13542-2 -39048-2 0  9995
2 69714  97.2830 218.1189 0001004  90.4544 268.6405 16.01398197  1567
